{"type": "FeatureCollection", "features": [ {"type": "Feature", "properties": {"norad_id": 28659, "name": "DIRECTV 8", "group": "intelsat", "lat": 0.003946682474643761, "lon": -150.9148759156976, "alt_km": 35782.87944410106, "timestamp": "2025-12-27T15:27:10.810958+00:00", "meta": {"OBJECT_NAME": "DIRECTV 8", "OBJECT_ID": "2005-019A", "EPOCH": "2025-12-26T09:14:16.477152", "MEAN_MOTION": 1.00271765, "ECCENTRICITY": 0.0003134, "INCLINATION": 0.0135, "RA_OF_ASC_NODE": 57.3028, "ARG_OF_PERICENTER": 228.1398, "MEAN_ANOMALY": 189.2168, "EPHEMERIS_TYPE": 0, "CLASSIFICATION_TYPE": "U", "NORAD_CAT_ID": 28659, "ELEMENT_SET_NO": 999, "REV_AT_EPOCH": 7534, "BSTAR": 0, "MEAN_MOTION_DOT": 2.3e-07, "MEAN_MOTION_DDOT": 0}, "tle": {"line1": "1 28659U 05019A   25360.38491293  .00000023  00000+0  00000+0 0  9993", "line2": "2 28659   0.0135  57.3028 0003134 228.1398 189.2168  1.00271765 75343"}}, "geometry": {"type": "Point", "coordinates": [-150.9148759156976, 0.003946682474643761]}}, {"type": "Feature", "properties": {"norad_id": 28702, "name": "GALAXY 28 (G-28)", "group": "intelsat", "lat": 0.6072788768581583, "lon": -111.46130985930725, "alt_km": 35680.10968830616, "timestamp": "2025-12-27T15:27:10.810970+00:00", "meta": {"OBJECT_NAME": "GALAXY 28 (G-28)", "OBJECT_ID": "2005-022A", "EPOCH": "2025-12-27T05:37:26.570784", "MEAN_MOTION": 1.00599457, "ECCENTRICITY": 0.00034148, "INCLINATION": 2.8569, "RA_OF_ASC_NODE": 81.1133, "ARG_OF_PERICENTER": 161.6106, "MEAN_ANOMALY": 217.4788, "EPHEMERIS_TYPE": 0, "CLASSIFICATION_TYPE": "U", "NORAD_CAT_ID": 28702, "ELEMENT_SET_NO": 999, "REV_AT_EPOCH": 5025, "BSTAR": 0, "MEAN_MOTION_DOT": -2.35e-06, "MEAN_MOTION_DDOT": 0}, "tle": {"line1": "1 28702U 05022A   25361.23433531 -.00000235  00000+0  00000+0 0  9998", "line2": "2 28702   2.8569  81.1133 0003414 161.6106 217.4788  1.00599457 50250"}}, "geometry": {"type": "Point", "coordinates": [-111.46130985930725, 0.6072788768581583]}}, {"type": "Feature", "properties": {"norad_id": 29236, "name": "GALAXY 16 (G-16)", "group": "intelsat", "lat": 0.0015924551183166022, "lon": -130.8763420045593, "alt_km": 35778.90417856573, "timestamp": "2025-12-27T15:27:10.810983+00:00", "meta": {"OBJECT_NAME": "GALAXY 16 (G-16)", "OBJECT_ID": "2006-023A", "EPOCH": "2025-12-27T05:40:54.876864", "MEAN_MOTION": 1.00271202, "ECCENTRICITY": 0.00027459, "INCLINATION": 0.0429, "RA_OF_ASC_NODE": 195.3646, "ARG_OF_PERICENTER": 84.5486, "MEAN_ANOMALY": 162.2754, "EPHEMERIS_TYPE": 0, "CLASSIFICATION_TYPE": "U", "NORAD_CAT_ID": 29236, "ELEMENT_SET_NO": 999, "REV_AT_EPOCH": 7124, "BSTAR": 0, "MEAN_MOTION_DOT": -1.04e-06, "MEAN_MOTION_DDOT": 0}, "tle": {"line1": "1 29236U 06023A   25361.23674626 -.00000104  00000+0  00000+0 0  9990", "line2": "2 29236   0.0429 195.3646 0002745  84.5486 162.2754  1.00271202 71242"}}, "geometry": {"type": "Point", "coordinates": [-130.8763420045593, 0.0015924551183166022]}}, {"type": "Feature", "properties": {"norad_id": 29494, "name": "DIRECTV 9S", "group": "intelsat", "lat": 1.1541145096385164, "lon": -133.05567386604338, "alt_km": 35778.312832493226, "timestamp": "2025-12-27T15:27:10.810994+00:00", "meta": {"OBJECT_NAME": "DIRECTV 9S", "OBJECT_ID": "2006-043A", "EPOCH": "2025-12-27T05:40:17.437152", "MEAN_MOTION": 1.00271318, "ECCENTRICITY": 0.00031286, "INCLINATION": 1.9756, "RA_OF_ASC_NODE": 83.0552, "ARG_OF_PERICENTER": 198.0551, "MEAN_ANOMALY": 158.7284, "EPHEMERIS_TYPE": 0, "CLASSIFICATION_TYPE": "U", "NORAD_CAT_ID": 29494, "ELEMENT_SET_NO": 999, "REV_AT_EPOCH": 4965, "BSTAR": 0, "MEAN_MOTION_DOT": -9.2e-07, "MEAN_MOTION_DDOT": 0}, "tle": {"line1": "1 29494U 06043A   25361.23631293 -.00000092  00000+0  00000+0 0  9997", "line2": "2 29494   1.9756  83.0552 0003128 198.0551 158.7284  1.00271318 49656"}}, "geometry": {"type": "Point", "coordinates": [-133.05567386604338, 1.1541145096385164]}}, {"type": "Feature", "properties": {"norad_id": 31307, "name": "GALAXY 17 (G-17)", "group": "intelsat", "lat": 0.8089956875654521, "lon": -116.82404634703859, "alt_km": 35762.9349213774, "timestamp": "2025-12-27T15:27:10.811006+00:00", "meta": {"OBJECT_NAME": "GALAXY 17 (G-17)", "OBJECT_ID": "2007-016B", "EPOCH": "2025-12-27T05:41:41.557920", "MEAN_MOTION": 1.00271444, "ECCENTRICITY": 0.00056477, "INCLINATION": 2.5345, "RA_OF_ASC_NODE": 82.1193, "ARG_OF_PERICENTER": 175.01, "MEAN_ANOMALY": 199.2775, "EPHEMERIS_TYPE": 0, "CLASSIFICATION_TYPE": "U", "NORAD_CAT_ID": 31307, "ELEMENT_SET_NO": 999, "REV_AT_EPOCH": 6808, "BSTAR": 0, "MEAN_MOTION_DOT": -1.85e-06, "MEAN_MOTION_DDOT": 0}, "tle": {"line1": "1 31307U 07016B   25361.23728655 -.00000185  00000+0  00000+0 0  9996", "line2": "2 31307   2.5345  82.1193 0005647 175.0100 199.2775  1.00271444 68080"}}, "geometry": {"type": "Point", "coordinates": [-116.82404634703859, 0.8089956875654521]}}, {"type": "Feature", "properties": {"norad_id": 31862, "name": "DIRECTV 10", "group": "intelsat", "lat": -0.0020476235696097857, "lon": -134.55525757888796, "alt_km": 35780.45184399896, "timestamp": "2025-12-27T15:27:10.811018+00:00", "meta": {"OBJECT_NAME": "DIRECTV 10", "OBJECT_ID": "2007-032A", "EPOCH": "2025-12-25T09:09:15.831072", "MEAN_MOTION": 1.00280696, "ECCENTRICITY": 7.66e-05, "INCLINATION": 0.0126, "RA_OF_ASC_NODE": 126.575, "ARG_OF_PERICENTER": 111.4706, "MEAN_ANOMALY": 250.6263, "EPHEMERIS_TYPE": 0, "CLASSIFICATION_TYPE": "U", "NORAD_CAT_ID": 31862, "ELEMENT_SET_NO": 999, "REV_AT_EPOCH": 4385, "BSTAR": 0, "MEAN_MOTION_DOT": -8.3e-07, "MEAN_MOTION_DDOT": 0}, "tle": {"line1": "1 31862U 07032A   25359.38143323 -.00000083  00000+0  00000+0 0  9993", "line2": "2 31862   0.0126 126.5750 0000766 111.4706 250.6263  1.00280696 43852"}}, "geometry": {"type": "Point", "coordinates": [-134.55525757888796, -0.0020476235696097857]}}, {"type": "Feature", "properties": {"norad_id": 32253, "name": "INTELSAT 11 (IS-11)", "group": "intelsat", "lat": 2.313702155236454, "lon": 128.24380676172103, "alt_km": 36152.15507121676, "timestamp": "2025-12-27T15:27:10.811030+00:00", "meta": {"OBJECT_NAME": "INTELSAT 11 (IS-11)", "OBJECT_ID": "2007-044B", "EPOCH": "2025-12-27T04:23:51.542016", "MEAN_MOTION": 0.99052931, "ECCENTRICITY": 0.0008675, "INCLINATION": 3.1158, "RA_OF_ASC_NODE": 80.8129, "ARG_OF_PERICENTER": 172.2743, "MEAN_ANOMALY": 71.0232, "EPHEMERIS_TYPE": 0, "CLASSIFICATION_TYPE": "U", "NORAD_CAT_ID": 32253, "ELEMENT_SET_NO": 999, "REV_AT_EPOCH": 6674, "BSTAR": 0, "MEAN_MOTION_DOT": -2.29e-06, "MEAN_MOTION_DDOT": 0}, "tle": {"line1": "1 32253U 07044B   25361.18323544 -.00000229  00000+0  00000+0 0  9999", "line2": "2 32253   3.1158  80.8129 0008675 172.2743  71.0232  0.99052931 66741"}}, "geometry": {"type": "Point", "coordinates": [128.24380676172103, 2.313702155236454]}}, {"type": "Feature", "properties": {"norad_id": 32388, "name": "HORIZONS-2", "group": "intelsat", "lat": 0.30168289023993494, "lon": -105.6799505517275, "alt_km": 35768.42676652999, "timestamp": "2025-12-27T15:27:10.811043+00:00", "meta": {"OBJECT_NAME": "HORIZONS-2", "OBJECT_ID": "2007-063B", "EPOCH": "2025-12-27T01:24:36.095040", "MEAN_MOTION": 1.00268662, "ECCENTRICITY": 0.00048859, "INCLINATION": 2.1568, "RA_OF_ASC_NODE": 82.8029, "ARG_OF_PERICENTER": 197.7808, "MEAN_ANOMALY": 122.5454, "EPHEMERIS_TYPE": 0, "CLASSIFICATION_TYPE": "U", "NORAD_CAT_ID": 32388, "ELEMENT_SET_NO": 999, "REV_AT_EPOCH": 6608, "BSTAR": 0, "MEAN_MOTION_DOT": -2.32e-06, "MEAN_MOTION_DDOT": 0}, "tle": {"line1": "1 32388U 07063B   25361.05875110 -.00000232  00000+0  00000+0 0  9990", "line2": "2 32388   2.1568  82.8029 0004885 197.7808 122.5454  1.00268662 66086"}}, "geometry": {"type": "Point", "coordinates": [-105.6799505517275, 0.30168289023993494]}}, {"type": "Feature", "properties": {"norad_id": 32729, "name": "DIRECTV 11", "group": "intelsat", "lat": 0.0003972576449127372, "lon": -131.14705232239768, "alt_km": 35785.116016554166, "timestamp": "2025-12-27T15:27:10.811054+00:00", "meta": {"OBJECT_NAME": "DIRECTV 11", "OBJECT_ID": "2008-013A", "EPOCH": "2025-12-24T22:53:59.758368", "MEAN_MOTION": 1.00260442, "ECCENTRICITY": 0.0001047, "INCLINATION": 0.0475, "RA_OF_ASC_NODE": 199.7105, "ARG_OF_PERICENTER": 11.4593, "MEAN_ANOMALY": 126.8496, "EPHEMERIS_TYPE": 0, "CLASSIFICATION_TYPE": "U", "NORAD_CAT_ID": 32729, "ELEMENT_SET_NO": 999, "REV_AT_EPOCH": 4384, "BSTAR": 0, "MEAN_MOTION_DOT": -1.03e-06, "MEAN_MOTION_DDOT": 0}, "tle": {"line1": "1 32729U 08013A   25358.95416387 -.00000103  00000+0  00000+0 0  9994", "line2": "2 32729   0.0475 199.7105 0001047  11.4593 126.8496  1.00260442 43842"}}, "geometry": {"type": "Point", "coordinates": [-131.14705232239768, 0.0003972576449127372]}}, {"type": "Feature", "properties": {"norad_id": 32951, "name": "GALAXY 18 (G-18)", "group": "intelsat", "lat": -0.01183159030650149, "lon": -154.88776825032986, "alt_km": 35783.63696298193, "timestamp": "2025-12-27T15:27:10.811066+00:00", "meta": {"OBJECT_NAME": "GALAXY 18 (G-18)", "OBJECT_ID": "2008-024A", "EPOCH": "2025-12-27T05:33:11.258784", "MEAN_MOTION": 1.00271313, "ECCENTRICITY": 0.00033804, "INCLINATION": 0.0194, "RA_OF_ASC_NODE": 7.6627, "ARG_OF_PERICENTER": 277.2511, "MEAN_ANOMALY": 131.3399, "EPHEMERIS_TYPE": 0, "CLASSIFICATION_TYPE": "U", "NORAD_CAT_ID": 32951, "ELEMENT_SET_NO": 999, "REV_AT_EPOCH": 4412, "BSTAR": 0, "MEAN_MOTION_DOT": 0, "MEAN_MOTION_DDOT": 0}, "tle": {"line1": "1 32951U 08024A   25361.23138031  .00000000  00000+0  00000+0 0  9990", "line2": "2 32951   0.0194   7.6627 0003380 277.2511 131.3399  1.00271313 44121"}}, "geometry": {"type": "Point", "coordinates": [-154.88776825032986, -0.01183159030650149]}}]}